COMMENT,ORIGINATOR,NORAD_CAT_ID,OBJECT_NAME,OBJECT_TYPE,CLASSIFICATION_TYPE,INTLDES,EPOCH,EPOCH_MICROSECONDS,MEAN_MOTION,ECCENTRICITY,INCLINATION,RA_OF_ASC_NODE,ARG_OF_PERICENTER,MEAN_ANOMALY,EPHEMERIS_TYPE,ELEMENT_SET_NO,REV_AT_EPOCH,BSTAR,MEAN_MOTION_DOT,MEAN_MOTION_DDOT,FILE,TLE_LINE0,TLE_LINE1,TLE_LINE2,OBJECT_ID,OBJECT_NUMBER,SEMIMAJOR_AXIS,PERIOD,APOGEE,PERIGEE,DECAYED
GENERATED VIA SPACETRACK.ORG API,18 SPCS,4084,SL-8 DEB,DEBRIS,U,69070C,2024-02-02 16:17:28,139424,14.4648553,0.0022944,74.0683,129.4858,244.6362,115.2421,0,999,87059,6.697e-05,2.15e-06,0,4177944,0 SL-8 DEB,1 04084U 69070C   24033.67879791  .00000215  00000-0  66970-4 0  9994,2 04084  74.0683 129.4858 0022944 244.6362 115.2421 14.46485530870596,1969-070C,4084,7115.287,99.552,753.478,720.827,0
GENERATED VIA SPACETRACK.ORG API,18 SPCS,4084,SL-8 DEB,DEBRIS,U,69070C,2024-02-03 13:52:10,77024,14.46486054,0.0022924,74.0682,127.8103,242.8354,117.0468,0,999,87072,6.8841e-05,2.21e-06,0,4178485,0 SL-8 DEB,1 04084U 69070C   24034.57789441  .00000221  00000-0  68841-4 0  9992,2 04084  74.0682 127.8103 0022924 242.8354 117.0468 14.46486054870727,1969-070C,4084,7115.286,99.552,753.462,720.84,0
GENERATED VIA SPACETRACK.ORG API,18 SPCS,4084,SL-8 DEB,DEBRIS,U,69070C,2024-02-03 15:31:45,609024,14.46486096,0.0022922,74.0682,127.6814,242.695,117.1875,0,999,87073,6.8817e-05,2.21e-06,0,4178824,0 SL-8 DEB,1 04084U 69070C   24034.64705566  .00000221  00000-0  68817-4 0  9999,2 04084  74.0682 127.6814 0022922 242.6950 117.1875 14.46486096870732,1969-070C,4084,7115.286,99.552,753.46,720.841,0
GENERATED VIA SPACETRACK.ORG API,18 SPCS,4084,SL-8 DEB,DEBRIS,U,69070C,2024-02-04 09:47:16,460160,14.46486577,0.0022905,74.0681,126.2636,241.1563,118.7296,0,999,87082,7.1863e-05,2.32e-06,0,4179206,0 SL-8 DEB,1  4084U 69070C   24035.40782940  .00000232  00000-0  71863-4 0  9992,2  4084  74.0681 126.2636 0022905 241.1563 118.7296 14.46486577870821,1969-070C,4084,7115.284,99.552,753.447,720.851,0
GENERATED VIA SPACETRACK.ORG API,18 SPCS,4084,SL-8 DEB,DEBRIS,U,69070C,2024-02-04 14:46:03,56160,14.46486695,0.0022893,74.0681,125.8771,240.7566,119.1303,0,999,87087,7.2843e-05,2.36e-06,0,4179372,0 SL-8 DEB,1 04084U 69070C   24035.61531315  .00000236  00000-0  72843-4 0  9996,2 04084  74.0681 125.8771 0022893 240.7566 119.1303 14.46486695870870,1969-070C,4084,7115.284,99.552,753.438,720.86,0
GENERATED VIA SPACETRACK.ORG API,18 SPCS,4084,SL-8 DEB,DEBRIS,U,69070C,2024-02-04 16:25:38,588160,14.46486716,0.0022896,74.0681,125.7481,240.6509,119.2362,0,999,87088,7.2464e-05,2.34e-06,0,4179687,0 SL-8 DEB,1 04084U 69070C   24035.68447440  .00000234  00000-0  72464-4 0  9995,2 04084  74.0681 125.7481 0022896 240.6509 119.2362 14.46486716870887,1969-070C,4084,7115.283,99.552,753.44,720.857,0
GENERATED VIA SPACETRACK.ORG API,18 SPCS,4084,SL-8 DEB,DEBRIS,U,69070C,2024-02-05 14:00:20,480832,14.46487209,0.0022877,74.068,124.0727,238.8237,121.0678,0,999,87101,7.4955e-05,2.43e-06,0,4180290,0 SL-8 DEB,1 04084U 69070C   24036.58357038  .00000243  00000-0  74955-4 0  9995,2 04084  74.0680 124.0727 0022877 238.8237 121.0678 14.46487209871012,1969-070C,4084,7115.282,99.552,753.425,720.869,0
GENERATED VIA SPACETRACK.ORG API,18 SPCS,4084,SL-8 DEB,DEBRIS,U,69070C,2024-02-05 15:39:56,9376,14.46487253,0.0022873,74.068,123.9438,238.6822,121.2098,0,999,87102,7.5118e-05,2.44e-06,0,4180535,0 SL-8 DEB,1 04084U 69070C   24036.65273159  .00000244  00000-0  75118-4 0  9997,2 04084  74.0680 123.9438 0022873 238.6822 121.2098 14.46487253871021,1969-070C,4084,7115.282,99.552,753.422,720.872,0
GENERATED VIA SPACETRACK.ORG API,18 SPCS,4084,SL-8 DEB,DEBRIS,U,69070C,2024-02-06 13:14:37,878720,14.46487714,0.0022852,74.0679,122.2683,236.8552,123.0414,0,999,87115,7.5561e-05,2.46e-06,0,4181108,0 SL-8 DEB,1 04084U 69070C   24037.55182730  .00000246  00000-0  75561-4 0  9995,2 04084  74.0679 122.2683 0022852 236.8552 123.0414 14.46487714871158,1969-070C,4084,7115.28,99.551,753.405,720.885,0
GENERATED VIA SPACETRACK.ORG API,18 SPCS,4084,SL-8 DEB,DEBRIS,U,69070C,2024-02-06 16:33:48,931488,14.46487818,0.002285,74.0679,122.0106,236.5892,123.3081,0,999,87115,7.667e-05,2.5e-06,0,4181272,0 SL-8 DEB,1  4084U 69070C   24037.69014967  .00000250  00000-0  76670-4 0  9993,2  4084  74.0679 122.0106 0022850 236.5892 123.3081 14.46487818871156,1969-070C,4084,7115.28,99.551,753.403,720.886,0
GENERATED VIA SPACETRACK.ORG API,18 SPCS,4084,SL-8 DEB,DEBRIS,U,69070C,2024-02-06 16:33:48,931488,14.46487818,0.002285,74.0679,122.0106,236.5892,123.3081,0,999,87117,7.667e-05,2.5e-06,0,4181430,0 SL-8 DEB,1 04084U 69070C   24037.69014967  .00000250  00000-0  76670-4 0  9993,2 04084  74.0679 122.0106 0022850 236.5892 123.3081 14.46487818871178,1969-070C,4084,7115.28,99.551,753.403,720.886,0
GENERATED VIA SPACETRACK.ORG API,18 SPCS,4084,SL-8 DEB,DEBRIS,U,69070C,2024-02-07 14:08:30,769728,14.46488496,0.002283,74.0679,120.3353,234.7559,125.1463,0,999,87130,8.7509e-05,2.89e-06,0,4182068,0 SL-8 DEB,1 04084U 69070C   24038.58924502  .00000289  00000-0  87509-4 0  9992,2 04084  74.0679 120.3353 0022830 234.7559 125.1463 14.46488496871303,1969-070C,4084,7115.278,99.551,753.387,720.898,0
GENERATED VIA SPACETRACK.ORG API,18 SPCS,4084,SL-8 DEB,DEBRIS,U,69070C,2024-02-07 15:48:06,294816,14.46488534,0.0022829,74.0679,120.2064,234.6235,125.2791,0,999,87131,8.756e-05,2.89e-06,0,4182370,0 SL-8 DEB,1 04084U 69070C   24038.65840619  .00000289  00000-0  87560-4 0  9993,2 04084  74.0679 120.2064 0022829 234.6235 125.2791 14.46488534871318,1969-070C,4084,7115.278,99.551,753.386,720.899,0
GENERATED VIA SPACETRACK.ORG API,18 SPCS,4084,SL-8 DEB,DEBRIS,U,69070C,2024-02-08 15:02:23,623584,14.46489286,0.0022801,74.0677,118.4021,232.6371,127.2711,0,999,87145,9.823e-05,3.28e-06,0,4182958,0 SL-8 DEB,1 04084U 69070C   24039.62666231  .00000328  00000-0  98230-4 0  9997,2 04084  74.0677 118.4021 0022801 232.6371 127.2711 14.46489286871451,1969-070C,4084,7115.275,99.551,753.364,720.917,0
GENERATED VIA SPACETRACK.ORG API,18 SPCS,4084,SL-8 DEB,DEBRIS,U,69070C,2024-02-09 07:38:18,834720,14.4648971,0.0022778,74.0676,117.1132,231.2223,128.6901,0,999,87153,9.6515e-05,3.21e-06,0,4183644,0 SL-8 DEB,1  4084U 69070C   24040.31827355  .00000321  00000-0  96515-4 0  9998,2  4084  74.0676 117.1132 0022778 231.2223 128.6901 14.46489710871530,1969-070C,4084,7115.274,99.551,753.346,720.932,0
GENERATED VIA SPACETRACK.ORG API,18 SPCS,4084,SL-8 DEB,DEBRIS,U,69070C,2024-02-09 14:16:40,915200,14.46489949,0.0022768,74.0676,116.5976,230.6645,129.2496,0,999,87159,0.00010089,3.37e-06,0,4183826,0 SL-8 DEB,1 04084U 69070C   24040.59491800  .00000337  00000-0  10089-3 0  9998,2 04084  74.0676 116.5976 0022768 230.6645 129.2496 14.46489949871595,1969-070C,4084,7115.273,99.551,753.338,720.938,0
GENERATED VIA SPACETRACK.ORG API,18 SPCS,4084,SL-8 DEB,DEBRIS,U,69070C,2024-02-10 13:30:58,159296,14.4649099,0.0022743,74.0675,114.7932,228.7086,131.2115,0,999,87173,0.0001201,4.07e-06,0,4184737,0 SL-8 DEB,1 04084U 69070C   24041.56317314  .00000407  00000-0  12010-3 0  9997,2 04084  74.0675 114.7932 0022743 228.7086 131.2115 14.46490990871731,1969-070C,4084,7115.269,99.551,753.317,720.952,0
GENERATED VIA SPACETRACK.ORG API,18 SPCS,4084,SL-8 DEB,DEBRIS,U,69070C,2024-02-10 15:10:33,674880,14.46491036,0.0022741,74.0675,114.6643,228.575,131.3455,0,999,87174,0.00011974,4.05e-06,0,4185013,0 SL-8 DEB,1 04084U 69070C   24041.63233420  .00000405  00000-0  11974-3 0  9996,2 04084  74.0675 114.6643 0022741 228.5750 131.3455 14.46491036871744,1969-070C,4084,7115.269,99.551,753.315,720.953,0
GENERATED VIA SPACETRACK.ORG API,18 SPCS,4084,SL-8 DEB,DEBRIS,U,69070C,2024-02-11 07:46:28,833312,14.46491153,0.0022722,74.0674,113.3755,227.1644,132.7606,0,999,87182,0.0001007,3.36e-06,0,4185397,0 SL-8 DEB,1  4084U 69070C   24042.32394483  .00000336  00000-0  10070-3 0  9999,2  4084  74.0674 113.3755 0022722 227.1644 132.7606 14.46491153871821,1969-070C,4084,7115.269,99.551,753.301,720.967,0
GENERATED VIA SPACETRACK.ORG API,18 SPCS,4084,SL-8 DEB,DEBRIS,U,69070C,2024-02-11 14:24:50,881824,14.46491539,0.0022713,74.0674,112.8599,226.6127,133.3141,0,999,87188,0.00010959,3.69e-06,0,4185591,0 SL-8 DEB,1 04084U 69070C   24042.60058891  .00000369  00000-0  10959-3 0  9992,2 04084  74.0674 112.8599 0022713 226.6127 133.3141 14.46491539871886,1969-070C,4084,7115.268,99.551,753.294,720.972,0
GENERATED VIA SPACETRACK.ORG API,18 SPCS,4084,SL-8 DEB,DEBRIS,U,69070C,2024-02-11 16:04:26,394816,14.46491579,0.0022712,74.0674,112.731,226.4921,133.4351,0,999,87189,0.0001089,3.66e-06,0,4185871,0 SL-8 DEB,1 04084U 69070C   24042.66974994  .00000366  00000-0  10890-3 0  9990,2 04084  74.0674 112.7310 0022712 226.4921 133.4351 14.46491579871894,1969-070C,4084,7115.268,99.551,753.293,720.972,0
GENERATED VIA SPACETRACK.ORG API,18 SPCS,4084,SL-8 DEB,DEBRIS,U,69070C,2024-02-12 13:39:08,53344,14.46492304,0.0022683,74.0673,111.0554,224.6461,135.2872,0,999,87202,0.00011237,3.79e-06,0,4186491,0 SL-8 DEB,1 04084U 69070C   24043.56884321  .00000379  00000-0  11237-3 0  9994,2 04084  74.0673 111.0554 0022683 224.6461 135.2872 14.46492304872022,1969-070C,4084,7115.265,99.551,753.27,720.991,0
GENERATED VIA SPACETRACK.ORG API,18 SPCS,4084,SL-8 DEB,DEBRIS,U,69070C,2024-02-12 15:18:43,562880,14.46492363,0.002268,74.0673,110.9265,224.5092,135.4245,0,999,87203,0.00011231,3.78e-06,0,4186778,0 SL-8 DEB,1 04084U 69070C   24043.63800420  .00000378  00000-0  11231-3 0  9993,2 04084  74.0673 110.9265 0022680 224.5092 135.4245 14.46492363872037,1969-070C,4084,7115.265,99.551,753.267,720.993,0
GENERATED VIA SPACETRACK.ORG API,18 SPCS,4084,SL-8 DEB,DEBRIS,U,69070C,2024-02-13 11:13:49,660896,14.46493033,0.0022654,74.0673,109.3799,222.8449,137.0945,0,999,87213,0.00011251,3.79e-06,0,4187274,0 SL-8 DEB,1  4084U 69070C   24044.46793589  .00000379  00000-0  11251-3 0  9995,2  4084  74.0673 109.3799 0022654 222.8449 137.0945 14.46493033872130,1969-070C,4084,7115.263,99.551,753.247,721.009,0
